SPACEMOBILE-004         
1 61049U 24163E   26203.12805740  .00021093  00000+0  96140-3 0  9993
2 61049  52.9727 148.2451 0005368 248.8575 111.1846 15.20619582103083
CZ-8A R/B               
1 66004U 25231K   26203.47852840 -.00000061  00000+0  36982-4 0  9999
2 66004  50.0028 249.1718 0116543 348.2648  11.5557 14.30163757 39991
SZ-21 MODULE            
1 66515U 25246C   26203.72170198  .00053117  00000+0  28394-3 0  9995
2 66515  41.4721  85.5035 0009599 266.2654  93.7094 15.79406043 39354
SPACEMOBILE-006         
1 67232U 25309A   26203.91064971  .00002890  00000+0  15276-3 0  9991
2 67232  52.9955 167.9873 0009487 241.7813 118.2224 15.18689795 32028
SPACEMOBILE-008         
1 69589U 26139A   26203.02362932  .00000387  00000+0  38732-4 0  9992
2 69589  52.9952 104.4056 0005288  72.6023 287.5546 15.12810954  5259
SPACEMOBILE-009         
1 69590U 26139B   26203.02606359  .00001404  00000+0  96209-4 0  9992
2 69590  52.9945 104.4147 0005584  69.1876 290.9713 15.12712567  5255
SPACEMOBILE-010         
1 69591U 26139C   26203.69068104  .00001175  00000+0  83655-4 0  9992
2 69591  52.9950 101.4429 0005604  63.1942 296.9621 15.12550693  5369
